[{"OBJECT_NAME":"STARLINK-2428","OBJECT_ID":"2021-027H","EPOCH":"2026-03-09T12:09:34.121952","MEAN_MOTION":15.30198485,"ECCENTRICITY":9.773e-5,"INCLINATION":53.1604,"RA_OF_ASC_NODE":168.6419,"ARG_OF_PERICENTER":86.2995,"MEAN_ANOMALY":273.8117,"EPHEMERIS_TYPE":0,"CLASSIFICATION_TYPE":"U","NORAD_CAT_ID":48099,"ELEMENT_SET_NO":999,"REV_AT_EPOCH":27244,"BSTAR":0.00031528731,"MEAN_MOTION_DOT":8.99e-5,"MEAN_MOTION_DDOT":0},{"OBJECT_NAME":"GEOSCAN 1 (RS92S1)","OBJECT_ID":"2025-155E","EPOCH":"2026-03-09T22:44:05.846496","MEAN_MOTION":15.28410635,"ECCENTRICITY":0.00087099,"INCLINATION":97.4463,"RA_OF_ASC_NODE":37.403,"ARG_OF_PERICENTER":153.6429,"MEAN_ANOMALY":206.5255,"EPHEMERIS_TYPE":0,"CLASSIFICATION_TYPE":"U","NORAD_CAT_ID":64880,"ELEMENT_SET_NO":999,"REV_AT_EPOCH":6560,"BSTAR":0.00054367431,"MEAN_MOTION_DOT":0.00014993,"MEAN_MOTION_DDOT":0}]
